CUAVA-2                 
1 60527U 24149BM  26068.46955133  .00015400  00000+0  47570-3 0  9993
2 60527  97.3769 149.9859 0005669 291.2139  68.8497 15.33611708 86877
STARLINK-34401          
1 64757U 25147C   26068.73181365  .00018918  00000+0  64941-3 0  9997
2 64757  53.1596 242.8826 0001061  53.5782 306.5317 15.30191190 38680
